#aV2015  5 25  0  0  0.00000000     288 DD+AD WGS84 FIT  NGA
## 1846  86400.00000000   300.00000000 57167 0.0000000000000
+   31     1  2  3  4  5  6  7  9 10 11 12 13 14 15 16 17 18
+         19 20 21 22 23 24 25 26 27 28 29 30 31 32  0  0  0
+          0  0  0  0  0  0  0  0  0  0  0  0  0  0  0  0  0
+          0  0  0  0  0  0  0  0  0  0  0  0  0  0  0  0  0
+          0  0  0  0  0  0  0  0  0  0  0  0  0  0  0  0  0
++         2  2  2  2  2  2  2  2  2  2  2  2  2  2  2  2  2
++         2  2  2  2  2  2  2  2  2  2  2  2  2  2  0  0  0
++         0  0  0  0  0  0  0  0  0  0  0  0  0  0  0  0  0
++         0  0  0  0  0  0  0  0  0  0  0  0  0  0  0  0  0
++         0  0  0  0  0  0  0  0  0  0  0  0  0  0  0  0  0
%c cc cc ccc ccc cccc cccc cccc cccc ccccc ccccc ccccc ccccc
%c cc cc ccc ccc cccc cccc cccc cccc ccccc ccccc ccccc ccccc
%f  0.0000000  0.000000000  0.00000000000  0.000000000000000
%f  0.0000000  0.000000000  0.00000000000  0.000000000000000
%i    0    0    0    0      0      0      0      0         0
%i    0    0    0    0      0      0      0      0         0
/*      NGA, ST. LOUIS,MO.                                  
/*   EPHEMERIS COMPUTED FROM  1 DAYS OF DATA                
/*   EPOCHA SMOOTHER                                       
/* CCCCCCCCCCCCCCCCCCCCCCCCCCCCCCCCCCCCCCCCCCCCCCCCCCCCCCCCC
*  2015  5 25 14  0  0.00000000
P  1 -22656.918592 -12948.514287   5415.610582     -5.140426                    
V  1  -3864.950540  -6262.200595 -30664.003975      0.005020                    
P  2  10906.615063  20371.723040  13847.928313    567.998073                    
V  2 -14964.644928  -8066.673479  23858.523511      0.023503                    
P  3 -13970.304919  -7761.021473  21223.092960    335.803748                    
V  3   4250.022436 -26597.060333  -6969.607834      0.090609                    
P  4 -19296.263171 -18089.847475  -4009.115339    -16.165739                    
V  4   5639.201578    263.597599 -30563.308106     -0.016390                    
P  5   4157.067682  24176.714973  -9988.078046   -237.342111                    
V  5  -4628.368953  12211.282835  27951.411061      0.045875                    
P  6  -4147.900597  15460.976850  21198.240812    169.022220                    
V  6 -21714.350282 -15901.009862   7342.742715      0.090677                    
P  7 -20527.343964  -1804.497749 -16863.102132    464.449243                    
V  7 -15738.470135 -14625.454264  20233.900442      0.024960                    
P  9 -25217.215692   6144.309591   5678.567641   -161.470152                    
V  9   5592.251826  -5355.452476  30574.290944     -0.057103                    
P 10  -9296.145234  23137.998756   8117.331785   -176.320337                    
V 10  -2011.272902 -11384.412116  29203.769790     -0.015381                    
P 11 -23715.857653 -11458.517481  -4447.394622   -580.575988                    
V 11   6252.273802  -2848.376558 -29406.565445     -0.025326                    
P 12  11734.912006  11609.364568  20761.733138    295.885307                    
V 12  -5332.847209  25919.839546 -11210.471875      0.031786                    
P 13   4171.542484  14389.360268 -22074.154567   -117.512891                    
V 13 -26560.127805   7655.726768   -148.101948     -0.033054                    
P 14  18146.547373 -14919.629089  12478.309368     60.918921                    
V 14  15437.137521  -2679.251147 -26310.124066     -0.027837                    
P 15  16630.108307   7995.669895 -19299.104600   -251.215234                    
V 15 -21431.850028  11569.722919 -13419.538354     -0.021353                    
P 16  -1840.323368 -24321.467687 -10110.558339   -125.655593                    
V 16   4442.508942 -12172.868753  29052.312379      0.038221                    
P 17 -18076.259454  15276.774705  12138.368111   -172.820008                    
V 17 -14838.108664   3087.577508 -26828.823925     -0.016923                    
P 18  14666.784221 -12877.357750 -17383.323600    404.174046                    
V 18   -174.414419  23429.300619 -17318.019882      0.029486                    
P 19 -13585.447531 -10587.151571 -20535.551635   -511.460730                    
V 19  24197.846192  -8045.422836 -11513.628606     -0.011178                    
P 20   8850.271503  21184.224874 -13493.977883    323.309204                    
V 20  -4067.028992  16727.287199  23998.112173      0.036585                    
P 21  19765.603542  -1096.370747 -17167.958497   -449.292259                    
V 21  17280.380632  15542.154770  17813.171379     -0.034863                    
P 22   9632.566683 -22796.777581  -9166.304511    353.981495                    
V 22   2390.657272  12448.894937 -27915.784973      0.038179                    
P 23 -22493.659452  -2073.199484  14460.629806   -110.608430                    
V 23  15882.711994  -8642.993927  23274.010584     -0.024301                    
P 24  22265.875375  14398.400683   2534.378225    -48.844216                    
V 24    861.202148   4282.032591 -31278.369765     -0.005801                    
P 25  15054.252121  -3050.241368  21548.305970    -32.778056                    
V 25  -3182.494429  27388.414580   6233.587055     -0.039113                    
P 26   3892.991110 -26263.308076    575.215656     30.615309                    
V 26   2721.045292   1109.291367  31736.586155      0.005554                    
P 27  -1899.330743 -15326.769982 -21613.358990     74.439301                    
V 27  25487.386754 -10055.965518   5008.455192      0.027152                    
P 28 -12328.939842  19628.672083 -12267.918721    442.242542                    
V 28   1577.027701 -16590.996095 -26878.403871      0.026068                    
P 29  25248.087359  -3454.694748   7419.488430    612.660667                    
V 29  -8106.831436   5271.208984  30181.329905      0.023611                    
P 30 -13437.172850   8240.978008 -21397.567128    -54.474247                    
V 30 -19877.138703 -18497.386154   5296.274756      0.057254                    
P 31   1220.319823 -16963.441599  20437.484250    314.897982                    
V 31  20477.921649  15591.845272  12121.857570     -0.010640                    
P 32  -6148.448995 -21476.756432  14748.271515   -142.311554                    
V 32   5971.505548 -17711.012053 -22734.679734      0.096841                    
EOF
